  0.0,
  "46.805",
  0,
  999,
  5,
  42654,
  99.6804,
  304.0044,
  0.027563,
  38.5998,
  334.7564,
  12.91761308,
  95956,
  3,
  {
    tle_line1:
      "1 42654U 75052MP  24314.23722211  .00000113  00000-0  46805-3 0  9995",
    tle_line2:
      "2 42654  99.6804 304.0044 0275630  38.5998 334.7564 12.91761308959563",
  },
  None,
  datetime.datetime(2024, 12, 3, 18, 51, 13, 482681),
  "{}",
  "1506.025",
  "1083.061",
  "99.6804"),
  (40385,
  42655,
  "U",
  1975,
  52,
  "MQ",
  2024,
  338.33761139,
  7.27e-6,
  0.0,
  "122.95",
  0,
  999,
  1,
  42655,
  99.6013,
  10.6191,
  0.0570395,
  312.3415,
  43.0693,
  12.98167435,
  95428,
  7,
  {
    tle_line1:
      "1 42655U 75052MQ  24338.33761139  .00000727  00000-0  12295-2 0  9991",
    tle_line2:
      "2 42655  99.6013  10.6191 0570395 312.3415  43.0693 12.98167435954287",
  },
  None,
  datetime.datetime(2024, 12, 3, 18, 51, 13, 483898),
  "{}",
  "1705.486",
  "833.076",
  "99.6013"),
  (40386,
  42656,
  "U",
  1975,
  52,
  "MR",
  2024,
  337.25490354,
  4.27e-6,
  0.0,
  "92.84",
  0,
  999,
  2,
  42656,
  99.668,
  167.9392,
  0.0067445,
  196.2468,
  163.6495,
  13.34169338,
  53686,
  5,
  {
    tle_line1:
      "1 42656U 75052MR  24337.25490354  .00000427  00000-0  92840-3 0  9992",
    tle_line2:
      "2 42656  99.6680 167.9392 0067445 196.2468 163.6495 13.34169338536865",
  },
  None,
  datetime.datetime(2024, 12, 3, 18, 51, 13, 485017),
  "{}",
  "1181.726",
  "1080.434",
  "99.6680"),
  (40387,
  42657,
  "U",
  1975,
  52,
  "MS",
  2024,
  337.43402103,
  1.63e-6,
  0.0,
  "30.209",
  0,
  999,
  6,
  42657,
  99.716,
  236.6272,
  0.0045004,
  314.2768,
  45.468,
  13.5440077,
  54513,
  6,
  {
    tle_line1:
      "1 42657U 75052MS  24337.43402103  .00000163  00000-0  30209-3 0  9996",
    tle_line2:
      "2 42657  99.7160 236.6272 0045004 314.2768  45.4680 13.54400770545136",
  },
  None,
  datetime.datetime(2024, 12, 3, 18, 51, 13, 486279),
  "{}",
  "1089.570",
  "1022.656",
  "99.7160"),
  (40388,
  42659,
  "U",
  1975,
  52,
  "MU",
  2024,
  337.50896128,
  0.00017561,
  0.0,
  "186.96",
  0,
  999,
  5,
  42659,
  98.1823,
  70.797,
  0.0001324,
  56.4852,
  1.5464,
  14.88989084,
  59374,
  6,
  {
    tle_line1:
      "1 42659U 75052MU  24337.50896128  .00017561  00000-0  18696-2 0  9995",
    tle_line2:
      "2 42659  98.1823  70.7970 0001324  56.4852   1.5464 14.88989084593746",
  },
  None,
  datetime.datetime(2024, 12, 3, 18, 51, 13, 487906),
  "{}",
  "602.019",
  "600.171",
  "98.1823"),
];
